start=new Date('2023-01-03T00:00:00.000Z').valueOf();
sats=[{"SITE":"AFWTR","LAUNCH_DATE":"2022-07-11","ELEMENT_SET_NO":"999","INCLINATION":"97.6546","EPHEMERIS_TYPE":"0","OBJECT_TYPE":"PAYLOAD","PERIAPSIS":"560.300","COUNTRY_CODE":"US","GP_ID":"222067214","MEAN_MOTION_DDOT":"0.0000000000000","REV_AT_EPOCH":"2661","RA_OF_ASC_NODE":"186.3715","RCS_SIZE":"LARGE","TIME_SYSTEM":"UTC","ECCENTRICITY":"0.00039090","MEAN_MOTION_DOT":"0.00001024","TLE_LINE2":"2 53080  97.6546 186.3715 0003909   9.9588 350.1713 15.01259612 26613","BSTAR":"0.00008428900000","ARG_OF_PERICENTER":"9.9588","TLE_LINE1":"1 53080U 22077AP  23002.90862907  .00001024  00000-0  84289-4 0  9994","REF_FRAME":"TEME","APOAPSIS":"565.726","SEMIMAJOR_AXIS":"6941.148","FILE":"3729873","MEAN_ELEMENT_THEORY":"SGP4","CENTER_NAME":"EARTH","MEAN_ANOMALY":"350.1713","OBJECT_ID":"2022-077AP","OBJECT_NAME":"STARLINK-4330","PERIOD":"95.919","DECAY_DATE":null,"NORAD_CAT_ID":"53080","EPOCH":"2023-01-02T21:48:25.551648","MEAN_MOTION":"15.01259612","CLASSIFICATION_TYPE":"U"},{"BSTAR":"0.00000369040000","ECCENTRICITY":"0.00031130","MEAN_MOTION_DOT":"-0.00000012","TLE_LINE2":"2 53081  97.6527 186.2281 0003113  17.3891 342.7440 15.01260161 26599","RCS_SIZE":"LARGE","TIME_SYSTEM":"UTC","REV_AT_EPOCH":"2659","MEAN_MOTION_DDOT":"0.0000000000000","RA_OF_ASC_NODE":"186.2281","PERIAPSIS":"560.851","COUNTRY_CODE":"US","GP_ID":"222067440","INCLINATION":"97.6527","EPHEMERIS_TYPE":"0","OBJECT_TYPE":"PAYLOAD","LAUNCH_DATE":"2022-07-11","ELEMENT_SET_NO":"999","SITE":"AFWTR","NORAD_CAT_ID":"53081","DECAY_DATE":null,"MEAN_MOTION":"15.01260161","CLASSIFICATION_TYPE":"U","EPOCH":"2023-01-02T18:26:09.381696","OBJECT_NAME":"STARLINK-4326","PERIOD":"95.919","OBJECT_ID":"2022-077AQ","MEAN_ANOMALY":"342.7440","CENTER_NAME":"EARTH","SEMIMAJOR_AXIS":"6941.146","APOAPSIS":"565.172","MEAN_ELEMENT_THEORY":"SGP4","FILE":"3729873","REF_FRAME":"TEME","ARG_OF_PERICENTER":"17.3891","TLE_LINE1":"1 53081U 22077AQ  23002.76816414 -.00000012  00000-0  36904-5 0  9990"},{"TLE_LINE2":"2 53082  97.6529 186.2318 0003877  10.6975 349.4331 15.01263434 26598","MEAN_MOTION_DOT":"-0.00001198","ECCENTRICITY":"0.00038770","BSTAR":"-0.00008867500000","RA_OF_ASC_NODE":"186.2318","MEAN_MOTION_DDOT":"0.0000000000000","REV_AT_EPOCH":"2659","TIME_SYSTEM":"UTC","RCS_SIZE":"LARGE","OBJECT_TYPE":"PAYLOAD","EPHEMERIS_TYPE":"0","INCLINATION":"97.6529","GP_ID":"222066313","COUNTRY_CODE":"US","PERIAPSIS":"560.310","SITE":"AFWTR","ELEMENT_SET_NO":"999","LAUNCH_DATE":"2022-07-11","PERIOD":"95.919","OBJECT_NAME":"STARLINK-4321","CLASSIFICATION_TYPE":"U","MEAN_MOTION":"15.01263434","EPOCH":"2023-01-02T18:28:28.332768","NORAD_CAT_ID":"53082","DECAY_DATE":null,"CENTER_NAME":"EARTH","MEAN_ANOMALY":"349.4331","OBJECT_ID":"2022-077AR","REF_FRAME":"TEME","MEAN_ELEMENT_THEORY":"SGP4","FILE":"3729873","SEMIMAJOR_AXIS":"6941.136","APOAPSIS":"565.692","TLE_LINE1":"1 53082U 22077AR  23002.76977237 -.00001198  00000-0 -88675-4 0  9990","ARG_OF_PERICENTER":"10.6975"},{"MEAN_ANOMALY":"6.8355","OBJECT_ID":"2022-077AS","CENTER_NAME":"EARTH","DECAY_DATE":null,"NORAD_CAT_ID":"53083","EPOCH":"2023-01-02T18:09:48.691584","CLASSIFICATION_TYPE":"U","MEAN_MOTION":"15.01255676","OBJECT_NAME":"STARLINK-4251","PERIOD":"95.920","TLE_LINE1":"1 53083U 22077AS  23002.75681356  .00000190  00000-0  19385-4 0  9995","ARG_OF_PERICENTER":"353.2847","FILE":"3729873","MEAN_ELEMENT_THEORY":"SGP4","APOAPSIS":"564.158","SEMIMAJOR_AXIS":"6941.160","REF_FRAME":"TEME","RCS_SIZE":"LARGE","TIME_SYSTEM":"UTC","REV_AT_EPOCH":"2659","MEAN_MOTION_DDOT":"0.0000000000000","RA_OF_ASC_NODE":"186.2005","BSTAR":"0.00001938500000","MEAN_MOTION_DOT":"0.00000190","ECCENTRICITY":"0.00016320","TLE_LINE2":"2 53083  97.6517 186.2005 0001632 353.2847   6.8355 15.01255676 26599","LAUNCH_DATE":"2022-07-11","ELEMENT_SET_NO":"999","SITE":"AFWTR","COUNTRY_CODE":"US","PERIAPSIS":"561.892","GP_ID":"222066539","INCLINATION":"97.6517","OBJECT_TYPE":"PAYLOAD","EPHEMERIS_TYPE":"0"},{"MEAN_MOTION":"15.01246919","EPOCH":"2023-01-02T18:25:48.717408","CLASSIFICATION_TYPE":"U","NORAD_CAT_ID":"53084","DECAY_DATE":null,"PERIOD":"95.920","OBJECT_NAME":"STARLINK-4319","MEAN_ANOMALY":"345.6075","OBJECT_ID":"2022-077AT","CENTER_NAME":"EARTH","SEMIMAJOR_AXIS":"6941.187","APOAPSIS":"565.112","MEAN_ELEMENT_THEORY":"SGP4","FILE":"3729873","REF_FRAME":"TEME","ARG_OF_PERICENTER":"14.5234","TLE_LINE1":"1 53084U 22077AT  23002.76792497  .00003106  00000-0  24639-3 0  9993","BSTAR":"0.00024639000000","TLE_LINE2":"2 53084  97.6536 186.2291 0002968  14.5234 345.6075 15.01246919 26591","ECCENTRICITY":"0.00029680","MEAN_MOTION_DOT":"0.00003106","TIME_SYSTEM":"UTC","RCS_SIZE":"LARGE","RA_OF_ASC_NODE":"186.2291","MEAN_MOTION_DDOT":"0.0000000000000","REV_AT_EPOCH":"2659","GP_ID":"222067665","PERIAPSIS":"560.992","COUNTRY_CODE":"US","EPHEMERIS_TYPE":"0","OBJECT_TYPE":"PAYLOAD","INCLINATION":"97.6536","ELEMENT_SET_NO":"999","LAUNCH_DATE":"2022-07-11","SITE":"AFWTR"},{"TLE_LINE2":"2 53085  97.6514 186.2248 0003434   7.2050 352.9222 15.01269260 26593","ECCENTRICITY":"0.00034340","MEAN_MOTION_DOT":"0.00000597","BSTAR":"0.00005107700000","RA_OF_ASC_NODE":"186.2248","MEAN_MOTION_DDOT":"0.0000000000000","REV_AT_EPOCH":"2659","TIME_SYSTEM":"UTC","RCS_SIZE":"LARGE","EPHEMERIS_TYPE":"0","OBJECT_TYPE":"PAYLOAD","INCLINATION":"97.6514","GP_ID":"222067890","PERIAPSIS":"560.600","COUNTRY_CODE":"US","SITE":"AFWTR","ELEMENT_SET_NO":"999","LAUNCH_DATE":"2022-07-11","PERIOD":"95.919","OBJECT_NAME":"STARLINK-4324","MEAN_MOTION":"15.01269260","CLASSIFICATION_TYPE":"U","EPOCH":"2023-01-02T18:20:28.654656","DECAY_DATE":null,"NORAD_CAT_ID":"53085","CENTER_NAME":"EARTH","MEAN_ANOMALY":"352.9222","OBJECT_ID":"2022-077AU","REF_FRAME":"TEME","APOAPSIS":"565.367","SEMIMAJOR_AXIS":"6941.118","MEAN_ELEMENT_THEORY":"SGP4","FILE":"3729873","ARG_OF_PERICENTER":"7.2050","TLE_LINE1":"1 53085U 22077AU  23002.76422054  .00000597  00000-0  51077-4 0  9991"},{"SITE":"AFWTR","ELEMENT_SET_NO":"999","LAUNCH_DATE":"2022-07-11","OBJECT_TYPE":"PAYLOAD","EPHEMERIS_TYPE":"0","INCLINATION":"97.6521","GP_ID":"222066764","COUNTRY_CODE":"US","PERIAPSIS":"561.035","RA_OF_ASC_NODE":"186.2226","MEAN_MOTION_DDOT":"0.0000000000000","REV_AT_EPOCH":"2659","TIME_SYSTEM":"UTC","RCS_SIZE":"LARGE","TLE_LINE2":"2 53086  97.6521 186.2226 0002865  13.1933 346.9366 15.01256188 26598","MEAN_MOTION_DOT":"0.00000432","ECCENTRICITY":"0.00028650","BSTAR":"0.00003825900000","TLE_LINE1":"1 53086U 22077AV  23002.76607374  .00000432  00000-0  38259-4 0  9997","ARG_OF_PERICENTER":"13.1933","REF_FRAME":"TEME","MEAN_ELEMENT_THEORY":"SGP4","FILE":"3729873","SEMIMAJOR_AXIS":"6941.159","APOAPSIS":"565.012","CENTER_NAME":"EARTH","OBJECT_ID":"2022-077AV","MEAN_ANOMALY":"346.9366","PERIOD":"95.920","OBJECT_NAME":"STARLINK-4318","MEAN_MOTION":"15.01256188","CLASSIFICATION_TYPE":"U","EPOCH":"2023-01-02T18:23:08.771136","NORAD_CAT_ID":"53086","DECAY_DATE":null},{"ARG_OF_PERICENTER":"16.2645","TLE_LINE1":"1 53087U 22077AW  23002.76074999  .00000241  00000-0  23318-4 0  9997","REF_FRAME":"TEME","APOAPSIS":"564.339","SEMIMAJOR_AXIS":"6941.132","FILE":"3729873","MEAN_ELEMENT_THEORY":"SGP4","CENTER_NAME":"EARTH","OBJECT_ID":"2022-077AW","MEAN_ANOMALY":"343.8641","PERIOD":"95.919","OBJECT_NAME":"STARLINK-4329","CLASSIFICATION_TYPE":"U","MEAN_MOTION":"15.01264811","EPOCH":"2023-01-02T18:15:28.799136","DECAY_DATE":null,"NORAD_CAT_ID":"53087","SITE":"AFWTR","ELEMENT_SET_NO":"999","LAUNCH_DATE":"2022-07-11","EPHEMERIS_TYPE":"0","OBJECT_TYPE":"PAYLOAD","INCLINATION":"97.6513","GP_ID":"222066989","PERIAPSIS":"561.655","COUNTRY_CODE":"US","RA_OF_ASC_NODE":"186.2068","MEAN_MOTION_DDOT":"0.0000000000000","REV_AT_EPOCH":"2659","TIME_SYSTEM":"UTC","RCS_SIZE":"LARGE","TLE_LINE2":"2 53087  97.6513 186.2068 0001934  16.2645 343.8641 15.01264811 26598","ECCENTRICITY":"0.00019340","MEAN_MOTION_DOT":"0.00000241","BSTAR":"0.00002331800000"},{"OBJECT_ID":"2022-077AX","MEAN_ANOMALY":"349.6978","CENTER_NAME":"EARTH","NORAD_CAT_ID":"53088","DECAY_DATE":null,"MEAN_MOTION":"15.01263714","CLASSIFICATION_TYPE":"U","EPOCH":"2023-01-02T18:17:47.867712","OBJECT_NAME":"STARLINK-4333","PERIOD":"95.919","ARG_OF_PERICENTER":"10.4294","TLE_LINE1":"1 53088U 22077AX  23002.76235958  .00001587  00000-0  12811-3 0  9991","APOAPSIS":"564.618","SEMIMAJOR_AXIS":"6941.135","MEAN_ELEMENT_THEORY":"SGP4","FILE":"3729873","REF_FRAME":"TEME","RCS_SIZE":"LARGE","TIME_SYSTEM":"UTC","REV_AT_EPOCH":"2659","MEAN_MOTION_DDOT":"0.0000000000000","RA_OF_ASC_NODE":"186.2216","BSTAR":"0.00012811000000","ECCENTRICITY":"0.00023300","MEAN_MOTION_DOT":"0.00001587","TLE_LINE2":"2 53088  97.6514 186.2216 0002330  10.4294 349.6978 15.01263714 26590","LAUNCH_DATE":"2022-07-11","ELEMENT_SET_NO":"999","SITE":"AFWTR","PERIAPSIS":"561.383","COUNTRY_CODE":"US","GP_ID":"222067215","INCLINATION":"97.6514","EPHEMERIS_TYPE":"0","OBJECT_TYPE":"PAYLOAD"},{"ARG_OF_PERICENTER":"27.6148","TLE_LINE1":"1 53132U 22083A   23002.68396021  .00001460  00000-0  10984-3 0  9997","REF_FRAME":"TEME","APOAPSIS":"541.773","SEMIMAJOR_AXIS":"6917.895","MEAN_ELEMENT_THEORY":"SGP4","FILE":"3729873","CENTER_NAME":"EARTH","OBJECT_ID":"2022-083A","MEAN_ANOMALY":"332.4998","OBJECT_NAME":"STARLINK-4063","PERIOD":"95.438","DECAY_DATE":null,"NORAD_CAT_ID":"53132","MEAN_MOTION":"15.08835144","CLASSIFICATION_TYPE":"U","EPOCH":"2023-01-02T16:24:54.162144","SITE":"AFETR","LAUNCH_DATE":"2022-07-17","ELEMENT_SET_NO":"999","INCLINATION":"53.2166","EPHEMERIS_TYPE":"0","OBJECT_TYPE":"PAYLOAD","PERIAPSIS":"537.748","COUNTRY_CODE":"US","GP_ID":"222066767","MEAN_MOTION_DDOT":"0.0000000000000","REV_AT_EPOCH":"2579","RA_OF_ASC_NODE":"350.5812","RCS_SIZE":"LARGE","TIME_SYSTEM":"UTC","ECCENTRICITY":"0.00029090","MEAN_MOTION_DOT":"0.00001460","TLE_LINE2":"2 53132  53.2166 350.5812 0002909  27.6148 332.4998 15.08835144 25791","BSTAR":"0.00010984000000"}];
